COMMENT,ORIGINATOR,NORAD_CAT_ID,OBJECT_NAME,OBJECT_TYPE,CLASSIFICATION_TYPE,INTLDES,EPOCH,EPOCH_MICROSECONDS,MEAN_MOTION,ECCENTRICITY,INCLINATION,RA_OF_ASC_NODE,ARG_OF_PERICENTER,MEAN_ANOMALY,EPHEMERIS_TYPE,ELEMENT_SET_NO,REV_AT_EPOCH,BSTAR,MEAN_MOTION_DOT,MEAN_MOTION_DDOT,FILE,TLE_LINE0,TLE_LINE1,TLE_LINE2,OBJECT_ID,OBJECT_NUMBER,SEMIMAJOR_AXIS,PERIOD,APOGEE,PERIGEE,DECAYED
"GENERATED VIA SPACETRACK.ORG API","18 SPCS","55101","SPACEBEE-159","PAYLOAD","U","23001CW","2023-08-01 17:50:40","673184","15.22114302","0.0015948","97.4738","273.5968","197.6271","162.4414","0","999","3203","0.00085292","0.00019571","0","3969175","0 SPACEBEE-159","1 55101U 23001CW  23213.74352631  .00019571  00000-0  85292-3 0  9992","2 55101  97.4738 273.5968 0015948 197.6271 162.4414 15.22114302 32033","2023-001CW","55101","6877.601","94.605","510.435","488.498","0"
"GENERATED VIA SPACETRACK.ORG API","18 SPCS","55101","SPACEBEE-159","PAYLOAD","U","23001CW","2023-08-03 02:58:37","265952","15.22179034","0.0016084","97.473","274.9695","193.2058","166.8759","0","999","3224","0.0010991","0.00025309","0","3970332","0 SPACEBEE-159","1 55101U 23001CW  23215.12404243  .00025309  00000-0  10991-2 0  9992","2 55101  97.4730 274.9695 0016084 193.2058 166.8759 15.22179034 32240","2023-001CW","55101","6877.406","94.601","510.333","488.210","0"
"GENERATED VIA SPACETRACK.ORG API","18 SPCS","55101","SPACEBEE-159","PAYLOAD","U","23001CW","2023-08-04 02:38:31","893504","15.22220051","0.0016144","97.4728","275.9499","189.7005","170.3922","0","999","3239","0.00097019","0.00022351","0","3971472","0 SPACEBEE-159","1 55101U 23001CW  23216.11009136  .00022351  00000-0  97019-3 0  9995","2 55101  97.4728 275.9499 0016144 189.7005 170.3922 15.22220051 32393","2023-001CW","55101","6877.283","94.599","510.250","488.045","0"
"GENERATED VIA SPACETRACK.ORG API","18 SPCS","55101","SPACEBEE-159","PAYLOAD","U","23001CW","2023-08-05 03:53:03","691392","15.22265356","0.0016182","97.4724","276.9953","185.8838","174.2211","0","999","3255","0.001105","0.00025512","0","3972309","0 SPACEBEE-159","1 55101U 23001CW  23217.16184828  .00025512  00000-0  11050-2 0  9995","2 55101  97.4724 276.9953 0016182 185.8838 174.2211 15.22265356 32557","2023-001CW","55101","6877.146","94.596","510.140","487.883","0"
"GENERATED VIA SPACETRACK.ORG API","18 SPCS","55101","SPACEBEE-159","PAYLOAD","U","23001CW","2023-08-06 09:51:29","778048","15.22324288","0.001638","97.4723","278.2364","181.7824","178.3357","0","999","3274","0.00083191","0.00019208","0","3973220","0 SPACEBEE-159","1 55101U 23001CW  23218.41076132  .00019208  00000-0  83191-3 0  9993","2 55101  97.4723 278.2364 0016380 181.7824 178.3357 15.22324288 32744","2023-001CW","55101","6876.969","94.592","510.098","487.569","0"
"GENERATED VIA SPACETRACK.ORG API","18 SPCS","55101","SPACEBEE-159","PAYLOAD","U","23001CW","2023-08-07 17:24:31","409856","15.22374284","0.0016372","97.4725","279.543","177.747","182.3842","0","999","3294","0.0008904","0.00020598","0","3974470","0 SPACEBEE-159","1 55101U 23001CW  23219.72536354  .00020598  00000-0  89040-3 0  9998","2 55101  97.4725 279.5430 0016372 177.7470 182.3842 15.22374284 32944","2023-001CW","55101","6876.818","94.589","509.942","487.425","0"
"GENERATED VIA SPACETRACK.ORG API","18 SPCS","55101","SPACEBEE-159","PAYLOAD","U","23001CW","2023-08-09 02:32:07","613952","15.22438264","0.0016491","97.4728","280.9153","172.9639","187.1832","0","999","3315","0.001006","0.00023335","0","3975638","0 SPACEBEE-159","1 55101U 23001CW  23221.10564368  .00023335  00000-0  10060-2 0  9996","2 55101  97.4728 280.9153 0016491 172.9639 187.1832 15.22438264 33156","2023-001CW","55101","6876.626","94.585","509.831","487.150","0"
"GENERATED VIA SPACETRACK.ORG API","18 SPCS","55101","SPACEBEE-159","PAYLOAD","U","23001CW","2023-08-10 03:46:26","456160","15.22478496","0.0016608","97.4727","281.9608","169.4031","190.7559","0","999","3331","0.0009064","0.00021037","0","3976525","0 SPACEBEE-159","1 55101U 23001CW  23222.15725065  .00021037  00000-0  90640-3 0  9995","2 55101  97.4727 281.9608 0016608 169.4031 190.7559 15.22478496 33313","2023-001CW","55101","6876.504","94.583","509.790","486.949","0"
"GENERATED VIA SPACETRACK.ORG API","18 SPCS","55101","SPACEBEE-159","PAYLOAD","U","23001CW","2023-08-11 16:03:11","619072","15.22537552","0.0016745","97.4726","283.4635","164.7476","195.4268","0","999","3354","0.00079529","0.00018477","0","3978054","0 SPACEBEE-159","1 55101U 23001CW  23223.66888448  .00018477  00000-0  79529-3 0  9994","2 55101  97.4726 283.4635 0016745 164.7476 195.4268 15.22537552 33545","2023-001CW","55101","6876.327","94.579","509.706","486.677","0"
"GENERATED VIA SPACETRACK.ORG API","18 SPCS","55101","SPACEBEE-159","PAYLOAD","U","23001CW","2023-08-13 02:45:13","468608","15.22597349","0.0016781","97.4728","284.9014","159.9126","200.2774","0","999","3376","0.00087402","0.00020354","0","3979114","0 SPACEBEE-159","1 55101U 23001CW  23225.11473922  .00020354  00000-0  87402-3 0  9999","2 55101  97.4728 284.9014 0016781 159.9126 200.2774 15.22597349 33763","2023-001CW","55101","6876.147","94.575","509.550","486.473","0"
"GENERATED VIA SPACETRACK.ORG API","18 SPCS","55101","SPACEBEE-159","PAYLOAD","U","23001CW","2023-08-15 02:04:13","851552","15.22673221","0.0016871","97.4726","286.8623","153.4708","206.7395","0","999","3406","0.00082125","0.00019162","0","3980742","0 SPACEBEE-159","1 55101U 23001CW  23227.08627143  .00019162  00000-0  82125-3 0  9995","2 55101  97.4726 286.8623 0016871 153.4708 206.7395 15.22673221 34061","2023-001CW","55101","6875.918","94.571","509.384","486.183","0"
"GENERATED VIA SPACETRACK.ORG API","18 SPCS","55101","SPACEBEE-159","PAYLOAD","U","23001CW","2023-08-16 03:18:18","614880","15.22714833","0.0016892","97.4721","287.9082","150.2574","209.9626","0","999","3422","0.00087352","0.00020415","0","3981613","0 SPACEBEE-159","1 55101U 23001CW  23228.13771545  .00020415  00000-0  87352-3 0  9998","2 55101  97.4721 287.9082 0016892 150.2574 209.9626 15.22714833 34221","2023-001CW","55101","6875.793","94.568","509.273","486.043","0"
"GENERATED VIA SPACETRACK.ORG API","18 SPCS","55101","SPACEBEE-159","PAYLOAD","U","23001CW","2023-08-18 02:37:05","165184","15.22805423","0.0016912","97.4716","289.8694","143.8826","216.3556","0","999","3452","0.00099616","0.00023363","0","3983362","0 SPACEBEE-159","1 55101U 23001CW  23230.10908756  .00023363  00000-0  99616-3 0  9995","2 55101  97.4716 289.8694 0016912 143.8826 216.3556 15.22805423 34529","2023-001CW","55101","6875.520","94.562","509.013","485.757","0"
"GENERATED VIA SPACETRACK.ORG API","18 SPCS","55101","SPACEBEE-159","PAYLOAD","U","23001CW","2023-08-19 03:51:01","749888","15.22854078","0.0016959","97.4711","290.9151","140.4205","219.8273","0","999","3468","0.00094456","0.00022178","0","3984208","0 SPACEBEE-159","1 55101U 23001CW  23231.16043692  .00022178  00000-0  94456-3 0  9991","2 55101  97.4711 290.9151 0016959 140.4205 219.8273 15.22854078 34681","2023-001CW","55101","6875.374","94.559","508.899","485.579","0"
"GENERATED VIA SPACETRACK.ORG API","18 SPCS","55101","SPACEBEE-159","PAYLOAD","U","23001CW","2023-08-20 11:23:23","641152","15.22908403","0.001698","97.4707","292.2219","136.5007","223.7572","0","999","3488","0.00090148","0.00021194","0","3985453","0 SPACEBEE-159","1 55101U 23001CW  23232.47457918  .00021194  00000-0  90148-3 0  9997","2 55101  97.4707 292.2219 0016980 136.5007 223.7572 15.22908403 34886","2023-001CW","55101","6875.210","94.556","508.749","485.401","0"
"GENERATED VIA SPACETRACK.ORG API","18 SPCS","55101","SPACEBEE-159","PAYLOAD","U","23001CW","2023-08-21 18:55:41","316960","15.22967279","0.0016966","97.4706","293.5292","132.3472","227.9205","0","999","3508","0.00097674","0.00023015","0","3986598","0 SPACEBEE-159","1 55101U 23001CW  23233.78867265  .00023015  00000-0  97674-3 0  9997","2 55101  97.4706 293.5292 0016966 132.3472 227.9205 15.22967279 35082","2023-001CW","55101","6875.033","94.552","508.562","485.234","0"
"GENERATED VIA SPACETRACK.ORG API","18 SPCS","55101","SPACEBEE-159","PAYLOAD","U","23001CW","2023-08-23 02:27:54","773856","15.23022453","0.0017025","97.4706","294.8362","127.897","232.3809","0","999","3528","0.00090961","0.0002146","0","3987655","0 SPACEBEE-159","1 55101U 23001CW  23235.10271729  .00021460  00000-0  90961-3 0  9993","2 55101  97.4706 294.8362 0017025 127.8970 232.3809 15.23022453 35282","2023-001CW","55101","6874.867","94.549","508.437","485.028","0"
"GENERATED VIA SPACETRACK.ORG API","18 SPCS","55101","SPACEBEE-159","PAYLOAD","U","23001CW","2023-08-24 03:41:38","586048","15.23063911","0.0016997","97.4706","295.8821","124.6052","235.6791","0","999","3544","0.00080945","0.00019106","0","3988199","0 SPACEBEE-159","1 55101U 23001CW  23236.15391882  .00019106  00000-0  80945-3 0  9997","2 55101  97.4706 295.8821 0016997 124.6052 235.6791 15.23063911 35444","2023-001CW","55101","6874.742","94.546","508.292","484.922","0"
"GENERATED VIA SPACETRACK.ORG API","18 SPCS","55101","SPACEBEE-159","PAYLOAD","U","23001CW","2023-08-25 09:39:08","611200","15.23114985","0.0016892","97.4707","297.1237","120.7463","239.544","0","999","3563","0.00089033","0.00021059","0","3988744","0 SPACEBEE-159","1 55101U 23001CW  23237.40218300  .00021059  00000-0  89033-3 0  9996","2 55101  97.4707 297.1237 0016892 120.7463 239.5440 15.23114985 35631","2023-001CW","55101","6874.589","94.543","508.066","484.841","0"
"GENERATED VIA SPACETRACK.ORG API","18 SPCS","55101","SPACEBEE-159","PAYLOAD","U","23001CW","2023-08-25 09:39:08","611200","15.23114985","0.0016892","97.4707","297.1237","120.7463","239.544","0","999","3563","0.00089033","0.00021059","0","3988765","0 SPACEBEE-159","1 55101U 23001CW  23237.40218300  .00021059  00000-0  89033-3 0  9996","2 55101  97.4707 297.1237 0016892 120.7463 239.5440 15.23114985 35631","2023-001CW","55101","6874.589","94.543","508.066","484.841","0"
